[Satellite]
VERSION=1.1
NAME=CZ-4B R/B
NICKNAME=CZ-4B R/B
TLE1=1 29507U 06046C   19317.49885612 -.00000689  00000-0 -48268-4 0  9990
TLE2=2 29507  97.7585 335.0700 0051186 172.2416 187.9611 15.00484849712880
STATUS=0
